IRIDIUM 112             
1 41925U 17003J   26001.94493267  .00000024  00000+0  16672-5 0  9997
2 41925  86.3997 157.7764 0001849  94.9917 265.1490 14.34217496469448
IRIDIUM 111             
1 41926U 17003K   26001.93224745  .00000191  00000+0  61014-4 0  9994
2 41926  86.4003 157.8486 0002055  96.2702 263.8728 14.34218334469426
IRIDIUM 113             
1 42803U 17039A   26002.12151796 -.00000005  00000+0 -87292-5 0  9998
2 42803  86.3953  31.5724 0001945  96.9484 263.1933 14.34217479447389
IRIDIUM 123             
1 42804U 17039B   26002.16299701  .00000138  00000+0  42368-4 0  9991
2 42804  86.3950  63.0398 0002404 101.2220 258.9246 14.34217600446152
IRIDIUM 120             
1 42805U 17039C   26002.11517641  .00000062  00000+0  15002-4 0  9994
2 42805  86.3946  31.3792 0002422  87.3138 272.8335 14.34217531447378
IRIDIUM 115             
1 42806U 17039D   26002.14054414  .00000710  00000+0  20496-3 0  9994
2 42806  86.4481  31.4748 0002686  94.6581 265.4927 14.43276481450313
IRIDIUM 118             
1 42807U 17039E   26002.12494118  .00000079  00000+0  21049-4 0  9996
2 42807  86.3947  63.0543 0002117  98.6887 261.4549 14.34217982446149
IRIDIUM 117             
1 42808U 17039F   26002.14396898  .00000058  00000+0  13733-4 0  9993
2 42808  86.3947  63.0055 0002264 100.3085 259.8366 14.34217950446178
